#dP2020 10 21  0  0  0.00000000      97 __u+U IGS14 FIT  IAC
## 2128 259200.00000000   900.00000000 59143 0.0000000000000
+  122   C01C02C04C05C06C07C08C09C10C11C12C13C14C16C19C20C21
+        C22C23C24C25C26C27C28C29C30C32C33C34C35C36C37C38C39
+        C40C43C44C45C46C60E01E02E03E04E05E07E08E09E11E12E13
+        E14E15E18E19E21E24E25E26E27E30E31E33E36G01G02G03G04
+        G05G06G07G08G09G10G11G12G13G15G16G17G18G19G20G21G22
+        G23G24G25G26G27G28G29G30G31G32J01J02J03J07R01R02R03
+        R04R05R07R08R09R11R12R13R14R15R16R17R18R19R20R21R22
+        R23R24R26  0  0  0  0  0  0  0  0  0  0  0  0  0  0
++        13 13 13 13  8  8  8  8  8  8  7  7  7  8  7  7  7
++         7  7  7  7  7  7  7  7  7  7  8  8  7  7  7 11 10
++         9  9  9  9  8 14  4  4  4  4  4  4  4  4  4  4  4
++         4  4  4  4  4  4  4  4  4  4  4  4  4  3  3  3  3
++         3  3  3  3  3  3  3  3  3  3  3  3  3  3  3  3  3
++         3  3  3  3  3  3  3  3  3  3  9  9  9 13  6  5  5
++         5  5  5  5  5  5  5  6  5  5  6  5  5  6  6  5  6
++         5  5  8  0  0  0  0  0  0  0  0  0  0  0  0  0  0
%c M  cc GPS ccc cccc cccc cccc cccc ccccc ccccc ccccc ccccc
%c cc cc ccc ccc cccc cccc cccc cccc ccccc ccccc ccccc ccccc
%f  1.2500000  1.025000000  0.00000000000  0.000000000000000
%f  0.0000000  0.000000000  0.00000000000  0.000000000000000
%i    0    0    0    0      0      0      0      0         0
%i    0    0    0    0      0      0      0      0         0
/* INFORMATION & ANALYSIS CENTER (IAC)            FINAL DATA
/* S/V CLOCKS ARE ALIGNED TO GNSS TIME                      
/* G:C1WC2W R:C1PC2P E:C1XC5X C:C2IC6I J:C1CC2S             
/* PCV:IGS14_2118 OL/AL:FES2004  NONE     YN ORB:CoN CLK:CoN
*  2020 10 21 11  0  0.00000000
PC01 -34347.015041  24492.715385    330.330286   -649.932777
PC02   4492.988989  41909.574701   -252.385902    795.998788
PC04 -39663.887192  14368.947824   -376.367741   -219.059737
PC05  21911.369557  36013.504480    -88.199546   -148.102938
PC06 -23217.954725  24439.678862  25456.637313     60.827377
PC07 -16261.770391  37855.724365  10402.203998   -119.033543
PC08  -6457.278106  22615.358262 -34838.734701   -625.731169
PC09  -6941.182716  25423.766885  33086.529787    886.755000
PC10  -5934.316309  41873.715462  -2845.787488   -159.270958
PC11   6117.608770  14764.452283 -22805.437695   -699.086074
PC12 -14715.984505  13448.076171 -19507.194268    567.384656
PC13   6270.519249  30855.476261 -27809.438943    706.081197
PC14   -452.717266  23733.695189  14730.907035     12.108815
PC16 -20469.714570  24790.061448  27251.458415 999999.999999
PC19  -7103.961487 -17537.380461 -20491.601392    589.622996
PC20   7021.033216 -25865.616559  -7719.349766   -866.220594
PC21 -17610.957897  19095.345187 -10213.913862   -701.988479
PC22 -17509.916588   1189.878195 -21708.514035   -777.082766
PC23  20175.276449   9251.599942 -16900.099668   -900.817015
PC24   1643.187422  23138.148490  15496.566635   -720.624440
PC25  16439.200018  22485.533375  -1503.346445   -798.839701
PC26 -12230.089939  10706.914389  22680.174379    875.000239
PC27  22886.813258  -9599.319112  12755.274036    419.353991
PC28  27443.468116   2171.466232  -4523.355285   -155.623444
PC29 -16419.923823 -12035.508518  19083.293276    300.339517
PC30   4803.406923 -15900.547030  22424.673828    392.718542
PC32  17485.519839 -19178.330166  10253.806722   -900.085818
PC33   7144.231339  17608.301455  20437.938783   -816.485401
PC34  -4130.388968  15961.963461 -22517.442658   -827.151101
PC35 -27449.431299  -1402.216266   4747.299648   -597.463333
PC36 -15800.077746 -22969.311226   1281.748239   -868.290046
PC37  12920.867393  -9748.974414 -22707.345549   -892.522316
PC38  -3689.523399  27010.409454 -32134.252677    107.425164
PC39 -15666.481802  26344.803125  28903.837813     24.128729
PC40 -12127.110149  40459.679559   -772.411430     93.045036
PC43  15997.842971  12389.725461 -19226.907288   -426.331766
PC44 -22654.428538  10335.093409 -12576.224357   -157.626563
PC45 -20140.447494  -9208.488924  17005.430782 999999.999999
PC46  -2409.653630 -23402.473245 -15021.591904    582.331062
PC60   7264.966531  41501.003544  -1667.099959     -0.229214
PE01 -16324.599276   2250.026587  24599.105174   -965.963076
PE02  16297.386043  -2395.531854 -24584.961079    170.530260
PE03  25690.045565  -9056.224167  11558.606942   -356.160834
PE04 -19952.995564  20846.156513   6597.677451   -631.557780
PE05  16445.785063   8212.724099  23194.691576   -336.061260
PE07   2311.159221 -20533.032179 -21192.193000   -451.527423
PE08  19663.608178 -21017.594677  -6888.417604   6103.373997
PE09  -2164.367181  20409.948629  21331.501649   5891.609806
PE11   8487.450672  18685.402668 -21337.795171   6394.430331
PE12 -13378.480618  11376.915795 -23825.653122   5545.855913
PE13  -8265.165917 -18562.509898  21530.976369    404.879927
PE14  23388.619954 -10424.129949   2252.873099  -1197.843376
PE15  13159.447264 -11450.731207  23918.665442    847.445769
PE18 -18568.210921  19929.833976 -15597.204848  -1308.452575
PE19 -25339.634010   7258.076866 -13469.646434    108.480658
PE21 -14365.751893 -18707.536074  17892.611020   -627.767694
PE24   3518.493893  29378.588004   -129.270965   -540.832156
PE25  14297.290167  18858.037990 -17764.095121   -518.672216
PE26 -25024.024574 -14682.759793   5910.287591   2588.015010
PE27  -3984.563186 -29329.002902    603.699280    109.210507
PE30   9167.782853 -22171.820010 -17343.426844   3488.143008
PE31  -8700.209797  22648.769959  16972.394536   -475.039100
PE33 -26848.175969  -2403.528019 -12231.798206   -462.888630
PE36  24814.890947  14762.516157  -6493.850838    491.595642
PG01  22180.364059  14693.989254   2437.213736    814.177883
PG02  -9432.773781 -19395.377356  16166.420395   -532.401742
PG03  13161.858206  10191.967773  20637.504195   -332.144908
PG04  21137.984995   3488.386267  15728.992725   -147.473622
PG05  -3112.099468 -25303.324198  -7255.419809    -23.930662
PG06   5991.506079 -13807.524790  21934.935282   -334.508308
PG07  21161.965458   1833.278601 -15913.108552   -397.940835
PG08  13060.875666   9885.101655 -20950.994169    -52.212033
PG09  25009.851938  -6898.666881   5668.741064   -303.088652
PG10 -11648.571266  19379.234625 -13633.607298   -485.107337
PG11  20382.386582  12468.160501 -11681.603730   -130.888285
PG12 -11187.552747 -13310.928680  19887.934097     51.156915
PG13  -3276.774203 -14776.460826 -21954.353885     56.879109
PG15 -15139.322023  -8901.244476 -20361.194299   -195.467783
PG16   1008.312225  24832.024700  -8913.121908   -225.396372
PG17  18413.300917 -15222.871482  11996.020460    342.868873
PG18 -20093.292894   -385.482465 -17403.516812    310.265881
PG19  13474.124178 -15681.365646  16343.334975    -88.905859
PG20 -14899.979024   8110.938894 -20456.809830    526.324726
PG21  15542.563902  18668.857857 -10411.083232     60.031487
PG22  11649.271722  17762.521336  16233.425260   -740.585553
PG23 -14756.619969   9820.704588 -19803.300564     89.143315
PG24 -21904.924782 -15348.031889  -1372.930391    -20.066287
PG25 -15133.425987    385.976079  21570.970313      8.847502
PG26  -5119.726724  25555.929033   4352.352734    298.841229
PG27    660.574536  15586.088191 -21591.439472   -423.375201
PG28  12284.577035 -20272.313131 -11564.143241    665.140149
PG29 -25117.683137   3146.118249   8085.515670   -220.044961
PG30  14839.635977  -7589.256386 -20666.371959   -321.396462
PG31  -4651.280098  15244.682476  21117.783104    -76.348283
PG32 -17689.177481  16355.060344  11089.104689    359.834936
PJ01 -26908.048109  31722.515363  -2425.513819   -339.403169
PJ02 -25141.026105  24902.968065  27747.995416     -5.484612
PJ03 -34269.748349  17654.383185 -12449.080693     -2.195537
PJ07 -25381.577818  33675.915012     11.229354      0.103399
PR01  -7134.516250  -8889.347637 -22824.965380     69.388682
PR02 -17407.410665  10602.506958 -15264.339113    450.905936
PR03 -15049.433040  20523.439745   1270.585225     24.164225
PR04  -4314.308437  18605.783955  16922.247381     58.753361
PR05   8858.218684   6263.584643  23088.637849     59.654666
PR07  14883.306770 -20666.891223  -1785.060367    -40.908781
PR08   4315.953434 -18675.203712 -16796.281522    -55.279040
PR09  12259.235284    823.041285 -22341.771700      3.462156
PR11  -7846.341895 -23880.957616  -4166.650122    -41.882816
PR12 -13706.690135 -17655.181368  12344.766930    173.593576
PR13 -12095.506836  -1115.579732  22420.728511    -45.542820
PR14  -3264.298811  16357.221727  19322.914213     56.840837
PR15   7239.844419  23923.113452   5119.876492    106.990463
PR16  14225.803971  16674.141621 -12955.012316     -7.455866
PR17 -13728.311768   7379.852299 -20199.093199    367.798589
PR18   4492.057362  10901.793642 -22609.737220     53.463655
PR19  19555.704965   9320.688160 -13453.921703   -116.326894
PR20  24769.825998   1465.808694   5992.444189   -424.670329
PR21  12645.902084  -7672.585430  20771.638138   -160.549213
PR22  -5619.133502 -10912.442607  22332.868497    -78.443249
PR23 -23768.407690  -6478.542442   6629.441883    339.764957
PR24 -24635.910657   -747.807014  -6602.728959     17.656846
PR26  25243.578571   3508.195661    363.862904   -363.445333
EOF
